ONEWEB-0549             
1 56051U 23043F   24133.42020366  .00000076  00000+0  15224-3 0  9994
2 56051  87.9318  36.4066 0001951  83.1619 276.9737 13.21827298 57066
ONEWEB-0550             
1 56052U 23043G   24133.78605407  .00000075  00000+0  15029-3 0  9991
2 56052  87.9314  36.3429 0001716  83.1118 277.0211 13.21825869 58026
ONEWEB-0551             
1 56053U 23043H   24133.79032957 -.00000295  00000+0 -81687-3 0  9996
2 56053  87.9058  51.5463 0002031  85.6622 274.4741 13.15548126 56676
ONEWEB-0552             
1 56054U 23043J   24133.47696988  .00000038  00000+0  61507-4 0  9995
2 56054  87.9314  36.4143 0001719  89.1616 270.9715 13.21826113 57072
ONEWEB-0553             
1 56055U 23043K   24133.74055995  .00000042  00000+0  75665-4 0  9998
2 56055  87.9136  21.1496 0002030  69.6469 290.4880 13.16596167 59162
ONEWEB-0554             
1 56056U 23043L   24133.42388361  .00000057  00000+0  11676-3 0  9997
2 56056  87.9139  21.2328 0001168  86.9562 273.1703 13.16592506 58195
ONEWEB-0555             
1 56057U 23043M   24133.91787106  .00000152  00000+0  36482-3 0  9990
2 56057  87.9139  21.1076 0001871  58.2679 301.8634 13.16593393 59173
ONEWEB-0557             
1 56058U 23043N   24133.40013680  .00000015  00000+0  51296-5 0  9994
2 56058  87.9139  21.2359 0001590  44.8507 315.2753 13.16593215 58193
